[{"OBJECT_NAME":"AETHER-5","OBJECT_ID":"2026-004P","EPOCH":"2026-03-09T23:33:59.298912","MEAN_MOTION":14.87880363,"ECCENTRICITY":0.00069004,"INCLINATION":97.8032,"RA_OF_ASC_NODE":69.1988,"ARG_OF_PERICENTER":94.3564,"MEAN_ANOMALY":265.8441,"EPHEMERIS_TYPE":0,"CLASSIFICATION_TYPE":"U","NORAD_CAT_ID":67376,"ELEMENT_SET_NO":999,"REV_AT_EPOCH":854,"BSTAR":0.00028631782,"MEAN_MOTION_DOT":2.567e-5,"MEAN_MOTION_DDOT":0},{"OBJECT_NAME":"CZ-6A DEB","OBJECT_ID":"2022-151XR","EPOCH":"2026-03-07T05:13:23.585376","MEAN_MOTION":14.86365371,"ECCENTRICITY":0.0030591,"INCLINATION":98.768,"RA_OF_ASC_NODE":152.5166,"ARG_OF_PERICENTER":191.5134,"MEAN_ANOMALY":168.5383,"EPHEMERIS_TYPE":0,"CLASSIFICATION_TYPE":"U","NORAD_CAT_ID":55519,"ELEMENT_SET_NO":999,"REV_AT_EPOCH":17058,"BSTAR":0.0071908,"MEAN_MOTION_DOT":0.00064446,"MEAN_MOTION_DDOT":0}]
